QIANFAN-60              
1 62790U 25016F   26062.43556627  .00000054  00000+0  64365-4 0  9998
2 62790  88.9673  94.7112 0017891 108.9051 251.4041 13.50992386 58120
QIANFAN-61              
1 62791U 25016G   26062.46848823  .00000052  00000+0  61340-4 0  9992
2 62791  88.9740  94.9258 0016816 108.1316 252.1668 13.50993719 58147
QIANFAN-62              
1 62792U 25016H   26062.47253726  .00000048  00000+0  54959-4 0  9999
2 62792  88.9687  94.7500 0018200 108.5686 251.7444 13.50996403 58138
QIANFAN-63              
1 62793U 25016J   26062.49725670  .00000062  00000+0  76886-4 0  9993
2 62793  88.9694  94.7044 0018221 113.2907 247.0164 13.50995028 58175
QIANFAN-64              
1 62794U 25016K   26062.46437799  .00000045  00000+0  50574-4 0  9990
2 62794  88.9680  94.6710 0016202 106.9228 253.3701 13.50992974 58165
QIANFAN-65              
1 62795U 25016L   26062.46017707  .00000058  00000+0  71011-4 0  9997
2 62795  88.9677  94.6946 0016044 108.4024 251.8873 13.51008605 58149
QIANFAN-66              
1 62796U 25016M   26062.48896497  .00000063  00000+0  79327-4 0  9995
2 62796  88.9696  94.6776 0017173 104.6432 255.6624 13.50996747 58190
QIANFAN-67              
1 62797U 25016N   26062.49302227  .00000050  00000+0  58799-4 0  9996
2 62797  88.9686  94.6948 0017100 110.6926 249.6060 13.50995066 58163
QIANFAN-68              
1 62798U 25016P   26062.48494924  .00000065  00000+0  81821-4 0  9990
2 62798  88.9690  94.7438 0017161 109.1404 251.1607 13.51005054 58148
QIANFAN-69              
1 62799U 25016Q   26062.42734905  .00000082  00000+0  10832-3 0  9993
2 62799  88.9668  94.6015 0017936 110.3541 249.9539 13.51004116 58170
QIANFAN-70              
1 62800U 25016R   26062.44375392  .00000055  00000+0  65812-4 0  9998
2 62800  88.9690  94.7557 0017557 101.7565 258.5557 13.50996908 58139
QIANFAN-71              
1 62801U 25016S   26062.43958176  .00000063  00000+0  78737-4 0  9994
2 62801  88.9684  94.7306 0017789 113.3882 246.9143 13.50996428 58132
QIANFAN-72              
1 62802U 25016T   26062.45604868  .00000060  00000+0  73788-4 0  9991
2 62802  88.9674  94.7345 0020964 120.1888 240.1343 13.50996123 58125
QIANFAN-73              
1 63159U 25046A   26062.48290785  .00000158  00000+0  22638-3 0  9997
2 63159  88.9763 311.6845 0013128 250.0619 109.9118 13.50997583 58319
QIANFAN-74              
1 63160U 25046B   26062.46650919  .00000201  00000+0  29307-3 0  9995
2 63160  88.9764 311.5751 0001889  78.0943 282.0419 13.50997426 58375
QIANFAN-75              
1 63161U 25046C   26062.45364897  .00000196  00000+0  28446-3 0  9998
2 63161  88.9766 311.8112 0014325 253.8322 106.1253 13.51001229 58241
QIANFAN-76              
1 63162U 25046D   26062.44999664  .00000212  00000+0  31046-3 0  9993
2 63162  88.9765 311.7915 0011873 254.5434 105.4406 13.51013656 58258
QIANFAN-77              
1 63163U 25046E   26062.45889361  .00000428  00000+0  30174-3 0  9997
2 63163  88.9761 309.1344 0014238 181.4015 178.7124 13.96172756 59711
QIANFAN-78              
1 63164U 25046F   26062.49114193  .00000202  00000+0  29425-3 0  9993
2 63164  88.9763 311.6506 0013203 257.1452 102.8224 13.50997673 58338
QIANFAN-79              
1 63165U 25046G   26062.44603719  .00000191  00000+0  27694-3 0  9999
2 63165  88.9768 311.7659 0013062 255.5389 104.4313 13.51007896 58278
QIANFAN-80              
1 63166U 25046H   26062.46231844  .00000186  00000+0  26972-3 0  9990
2 63166  88.9765 311.4689 0011894 260.2488  99.7320 13.50997466 58432
QIANFAN-81              
1 63167U 25046J   26062.44044830  .00000183  00000+0  26430-3 0  9992
2 63167  88.9764 311.5390 0012939 247.9470 112.0307 13.50983399 58384
QIANFAN-82              
1 63168U 25046K   26062.47470678  .00000176  00000+0  25360-3 0  9992
2 63168  88.9765 311.5795 0011013 255.8574 104.1354 13.50998808 58374
QIANFAN-83              
1 63169U 25046L   26062.43771389  .00000281  00000+0  34830-3 0  9991
2 63169  88.9765 311.2012 0012387 233.6975 126.3039 13.62019730 58588
QIANFAN-84              
1 63170U 25046M   26062.50247419 -.00000069  00000+0 -12575-3 0  9991
2 63170  88.9760 311.7088 0014025 251.8717 108.0907 13.50960716 58307
QIANFAN-85              
1 63171U 25046N   26062.49937905  .00000197  00000+0  28640-3 0  9996
2 63171  88.9764 311.5809 0011429 254.4876 105.5013 13.51001605 58372
QIANFAN-86              
1 63172U 25046P   26062.43355146  .00000203  00000+0  29513-3 0  9990
2 63172  88.9766 311.4516 0009284 259.9582 100.0521 13.51000777 58440
QIANFAN-87              
1 63173U 25046Q   26062.47890654  .00000185  00000+0  26746-3 0  9997
2 63173  88.9762 311.5554 0009948 253.8406 106.1650 13.51009035 58384
QIANFAN-88              
1 63174U 25046R   26062.49521213  .00000185  00000+0  26806-3 0  9999
2 63174  88.9765 311.5104 0010362 263.4804  96.5167 13.50997414 58415
QIANFAN-89              
1 63175U 25046S   26062.45835401  .00000189  00000+0  27362-3 0  9995
2 63175  88.9765 311.7032 0014820 252.4352 107.5180 13.51007959 58300
QIANFAN-90              
1 63176U 25046T   26062.48718934  .00000200  00000+0  29152-3 0  9993
2 63176  88.9765 311.6727 0011767 250.4973 109.4907 13.51007752 58326
QIANFAN-91              
1 66033U 25233A   26062.44566056  .00000049  00000+0  57637-4 0  9999
2 66033  88.9926  53.8823 0001906  92.8647 267.2722 13.51004403 18900
QIANFAN-92              
1 66034U 25233B   26062.45382957  .00000069  00000+0  88742-4 0  9990
2 66034  88.9910  53.8705 0001946  86.4540 273.6833 13.51005728 18903
QIANFAN-93              
1 66035U 25233C   26062.46206081  .00000048  00000+0  55396-4 0  9991
2 66035  88.9937  53.8928 0001897  90.8373 269.2996 13.51004827 18908
QIANFAN-94              
1 66036U 25233D   26062.44953772  .00000034  00000+0  34453-4 0  9992
2 66036  88.9933  53.8010 0002038  88.5632 271.5753 13.50991777 18957
QIANFAN-95              
1 66037U 25233E   26062.45783022  .00000068  00000+0  86755-4 0  9992
2 66037  88.9932  53.3463 0002035  93.8948 266.2436 13.51015305 19203
QIANFAN-96              
1 66038U 25233F   26062.48267874  .00000033  00000+0  32546-4 0  9999
2 66038  88.9928  53.8899 0001912  94.7170 265.4199 13.51004547 18906
QIANFAN-97              
1 66039U 25233G   26062.46620538  .00000024  00000+0  19263-4 0  9999
2 66039  88.9932  53.8722 0001920  92.1550 267.9821 13.51003980 18910
QIANFAN-98              
1 66040U 25233H   26062.47438295  .00000027  00000+0  23914-4 0  9990
2 66040  88.9921  53.6138 0002439  86.3889 273.7541 13.51004405 19058
QIANFAN-99              
1 66041U 25233J   26062.47854527  .00000041  00000+0  44693-4 0  9994
2 66041  88.9931  53.8743 0002311  90.2776 269.8640 13.51004733 18916
QIANFAN-100             
1 66042U 25233K   26062.47028894  .00000069  00000+0  88194-4 0  9999
2 66042  88.9943  53.7902 0001899  91.4078 268.7290 13.51005555 18961
QIANFAN-101             
1 66043U 25233L   26062.46365394  .00000645  00000+0  26039-3 0  9997
2 66043  88.9933  52.7029 0016706 125.2291 235.0470 14.26731387 19551
QIANFAN-102             
1 66044U 25233M   26062.49071107  .00000029  00000+0  26729-4 0  9990
2 66044  88.9930  53.7851 0002070  88.9122 271.2266 13.50992321 18962
QIANFAN-103             
1 66045U 25233N   26062.49503906  .00000040  00000+0  43690-4 0  9997
2 66045  88.9933  53.8770 0001883  91.3771 268.7596 13.51006064 18919
QIANFAN-104             
1 66046U 25233P   26062.49894497  .00000034  00000+0  33421-4 0  9990
2 66046  88.9937  53.7739 0002082  86.1209 274.0180 13.51010107 18965
QIANFAN-105             
1 66047U 25233Q   26062.50706780  .00000040  00000+0  43132-4 0  9997
2 66047  88.9950  53.6021 0002009  92.6062 267.5319 13.50981425 19075
QIANFAN-106             
1 66048U 25233R   26062.50321942  .00000027  00000+0  23077-4 0  9992
2 66048  88.9919  53.8486 0002379  87.0113 273.1310 13.51005070 18924
QIANFAN-107             
1 66049U 25233S   26062.43741247  .00000036  00000+0  36677-4 0  9999
2 66049  88.9935  53.8709 0001906  90.4763 269.6607 13.51003097 18910
QIANFAN-108             
1 66050U 25233T   26062.44151939  .00000037  00000+0  39044-4 0  9997
2 66050  88.9928  53.8658 0002332  86.5989 273.5429 13.51004597 18919
